GAOFEN 13               
1 46610U 20071A   21106.35147646 -.00000360  00000-0  00000-0 0  9993
2 46610   1.5549 279.6444 0004707 245.6227 283.8047  1.00272185  1981
TIANTONG-1 2            
1 46916U 20082A   21106.49646248 -.00000357  00000-0  00000-0 0  9997
2 46916   5.1385 298.9395 0002524 143.4177  66.1171  1.00267891  1721
LUCAS (JDRS-1)          
1 47202U 20089A   21106.10605125 -.00000232  00000-0  00000-0 0  9992
2 47202   0.0260 127.4075 0003302 241.4353 324.5650  1.00271237  1471
SXM-7                   
1 47240U 20096A   21106.57075654 -.00000019  00000-0  00000-0 0  9994
2 47240   0.0585  76.5233 0000517 225.9774 352.6075  1.00273121  1390
CMS-01                  
1 47256U 20099A   21106.17341003 -.00000162  00000-0  00000-0 0  9993
2 47256   0.0900  96.8719 0005384 195.5166  57.6183  1.00272573  1264
TIANTONG-1 3            
1 47321U 21003A   21106.55961332 -.00000156  00000-0  00000-0 0  9990
2 47321   5.3504 309.6029 0002606 137.5543  40.7356  1.00273466  1046
TJS-6                   
1 47613U 21010A   21106.60867067  .00000046  00000-0  00000-0 0  9995
2 47613   0.8634 282.2444 0001344  89.7967 230.5942  1.00273378   903
